{
  "type": "FeatureCollection",
  "features": [
    {
      "type": "Feature",
      "properties": {
        "norad_id": 31017,
        "name": "FENGYUN 1C DEB",
        "group": "fengyun-1c-debris",
        "lat": -17.607905276577064,
        "lon": -31.90228500711461,
        "alt_km": 796.7738718450018,
        "timestamp": "2025-12-04T21:36:16.152891+00:00",
        "meta_object_name": "FENGYUN 1C DEB",
        "meta_object_id": "1999-025BDK",
        "meta_epoch": "2025-12-01T22:14:03.658272",
        "meta_mean_motion": 14.08793932,
        "meta_eccentricity": 0.01137794,
        "meta_inclination": 98.6789,
        "meta_ra_of_asc_node": 322.4558,
        "meta_arg_of_pericenter": 20.7136,
        "meta_mean_anomaly": 8.7497,
        "meta_ephemeris_type": 0,
        "meta_classification_type": "U",
        "meta_norad_cat_id": 31017,
        "meta_element_set_no": 999,
        "meta_rev_at_epoch": 96144,
        "meta_bstar": 0.00045741104,
        "meta_mean_motion_dot": 7.96e-06,
        "meta_mean_motion_ddot": 0,
        "tle_line1": "1 31017U 99025BDK 25335.92643123  .00000796  00000+0  45741-3 0  9990",
        "tle_line2": "2 31017  98.6789 322.4558 0113779  20.7136   8.7497 14.08793932961442"
      },
      "geometry": {
        "type": "Point",
        "coordinates": [
          -31.90228500711461,
          -17.607905276577064
        ]
      }
    },
    {
      "type": "Feature",
      "properties": {
        "norad_id": 31018,
        "name": "FENGYUN 1C DEB",
        "group": "fengyun-1c-debris",
        "lat": -22.033247990933695,
        "lon": 69.24797659917445,
        "alt_km": 883.804024333348,
        "timestamp": "2025-12-04T21:36:16.152901+00:00",
        "meta_object_name": "FENGYUN 1C DEB",
        "meta_object_id": "1999-025BDL",
        "meta_epoch": "2025-12-03T11:48:47.030400",
        "meta_mean_motion": 14.16813771,
        "meta_eccentricity": 0.00597589,
        "meta_inclination": 99.0274,
        "meta_ra_of_asc_node": 64.1309,
        "meta_arg_of_pericenter": 151.5965,
        "meta_mean_anomaly": 208.8488,
        "meta_ephemeris_type": 0,
        "meta_classification_type": "U",
        "meta_norad_cat_id": 31018,
        "meta_element_set_no": 999,
        "meta_rev_at_epoch": 95924,
        "meta_bstar": 0.0025638478,
        "meta_mean_motion_dot": 5.182e-05,
        "meta_mean_motion_ddot": 0,
        "tle_line1": "1 31018U 99025BDL 25337.49221100  .00005182  00000+0  25638-2 0  9998",
        "tle_line2": "2 31018  99.0274  64.1309 0059758 151.5965 208.8488 14.16813771959241"
      },
      "geometry": {
        "type": "Point",
        "coordinates": [
          69.24797659917445,
          -22.033247990933695
        ]
      }
    },
    {
      "type": "Feature",
      "properties": {
        "norad_id": 31019,
        "name": "FENGYUN 1C DEB",
        "group": "fengyun-1c-debris",
        "lat": 71.1159866786824,
        "lon": 26.109730668328947,
        "alt_km": 2638.070468100558,
        "timestamp": "2025-12-04T21:36:16.152911+00:00",
        "meta_object_name": "FENGYUN 1C DEB",
        "meta_object_id": "1999-025BDM",
        "meta_epoch": "2025-12-01T11:54:56.953728",
        "meta_mean_motion": 11.82937409,
        "meta_eccentricity": 0.11191603,
        "meta_inclination": 98.7033,
        "meta_ra_of_asc_node": 177.2685,
        "meta_arg_of_pericenter": 305.0923,
        "meta_mean_anomaly": 70.4876,
        "meta_ephemeris_type": 0,
        "meta_classification_type": "U",
        "meta_norad_cat_id": 31019,
        "meta_element_set_no": 999,
        "meta_rev_at_epoch": 55048,
        "meta_bstar": 0.0036567783,
        "meta_mean_motion_dot": 1.347e-05,
        "meta_mean_motion_ddot": 0,
        "tle_line1": "1 31019U 99025BDM 25335.49649252  .00001347  00000+0  36568-2 0  9992",
        "tle_line2": "2 31019  98.7033 177.2685 1119160 305.0923  70.4876 11.82937409550481"
      },
      "geometry": {
        "type": "Point",
        "coordinates": [
          26.109730668328947,
          71.1159866786824
        ]
      }
    },
    {
      "type": "Feature",
      "properties": {
        "norad_id": 31021,
        "name": "FENGYUN 1C DEB",
        "group": "fengyun-1c-debris",
        "lat": -73.43713321820681,
        "lon": 118.69952822561484,
        "alt_km": 471.5943899062722,
        "timestamp": "2025-12-04T21:36:16.152942+00:00",
        "meta_object_name": "FENGYUN 1C DEB",
        "meta_object_id": "1999-025BDP",
        "meta_epoch": "2025-11-23T02:39:04.527648",
        "meta_mean_motion": 14.74941254,
        "meta_eccentricity": 0.0268991,
        "meta_inclination": 98.348,
        "meta_ra_of_asc_node": 76.9426,
        "meta_arg_of_pericenter": 304.648,
        "meta_mean_anomaly": 52.9635,
        "meta_ephemeris_type": 0,
        "meta_classification_type": "U",
        "meta_norad_cat_id": 31021,
        "meta_element_set_no": 999,
        "meta_rev_at_epoch": 73143,
        "meta_bstar": 0.00041319973,
        "meta_mean_motion_dot": 4.94e-05,
        "meta_mean_motion_ddot": 0,
        "tle_line1": "1 31021U 99025BDP 25327.11046907  .00004940  00000+0  41320-3 0  9998",
        "tle_line2": "2 31021  98.3480  76.9426 0268991 304.6480  52.9635 14.74941254731434"
      },
      "geometry": {
        "type": "Point",
        "coordinates": [
          118.69952822561484,
          -73.43713321820681
        ]
      }
    },
    {
      "type": "Feature",
      "properties": {
        "norad_id": 31022,
        "name": "FENGYUN 1C DEB",
        "group": "fengyun-1c-debris",
        "lat": 40.05614435696879,
        "lon": -145.73759493264538,
        "alt_km": 939.7115669545419,
        "timestamp": "2025-12-04T21:36:16.152954+00:00",
        "meta_object_name": "FENGYUN 1C DEB",
        "meta_object_id": "1999-025BDQ",
        "meta_epoch": "2025-11-29T22:14:32.342208",
        "meta_mean_motion": 13.9042789,
        "meta_eccentricity": 0.01095005,
        "meta_inclination": 99.5166,
        "meta_ra_of_asc_node": 217.2812,
        "meta_arg_of_pericenter": 156.1231,
        "meta_mean_anomaly": 204.506,
        "meta_ephemeris_type": 0,
        "meta_classification_type": "U",
        "meta_norad_cat_id": 31022,
        "meta_element_set_no": 999,
        "meta_rev_at_epoch": 61830,
        "meta_bstar": 0.00039044901,
        "meta_mean_motion_dot": 4.63e-06,
        "meta_mean_motion_ddot": 0,
        "tle_line1": "1 31022U 99025BDQ 25333.92676322  .00000463  00000+0  39045-3 0  9992",
        "tle_line2": "2 31022  99.5166 217.2812 0109500 156.1231 204.5060 13.90427890618301"
      },
      "geometry": {
        "type": "Point",
        "coordinates": [
          -145.73759493264538,
          40.05614435696879
        ]
      }
    },
    {
      "type": "Feature",
      "properties": {
        "norad_id": 31024,
        "name": "FENGYUN 1C DEB",
        "group": "fengyun-1c-debris",
        "lat": 38.13405526090231,
        "lon": 79.23924354378975,
        "alt_km": 766.0445718603332,
        "timestamp": "2025-12-04T21:36:16.152964+00:00",
        "meta_object_name": "FENGYUN 1C DEB",
        "meta_object_id": "1999-025BDS",
        "meta_epoch": "2025-12-04T00:39:46.080288",
        "meta_mean_motion": 14.20842939,
        "meta_eccentricity": 0.0074749,
        "meta_inclination": 99.0411,
        "meta_ra_of_asc_node": 251.1662,
        "meta_arg_of_pericenter": 149.3776,
        "meta_mean_anomaly": 211.1795,
        "meta_ephemeris_type": 0,
        "meta_classification_type": "U",
        "meta_norad_cat_id": 31024,
        "meta_element_set_no": 999,
        "meta_rev_at_epoch": 96580,
        "meta_bstar": 0.00047760152,
        "meta_mean_motion_dot": 1.016e-05,
        "meta_mean_motion_ddot": 0,
        "tle_line1": "1 31024U 99025BDS 25338.02761667  .00001016  00000+0  47760-3 0  9995",
        "tle_line2": "2 31024  99.0411 251.1662 0074749 149.3776 211.1795 14.20842939965803"
      },
      "geometry": {
        "type": "Point",
        "coordinates": [
          79.23924354378975,
          38.13405526090231
        ]
      }
    },
    {
      "type": "Feature",
      "properties": {
        "norad_id": 31025,
        "name": "FENGYUN 1C DEB",
        "group": "fengyun-1c-debris",
        "lat": -17.1100268900339,
        "lon": -28.015247736981514,
        "alt_km": 751.0918495944252,
        "timestamp": "2025-12-04T21:36:16.152973+00:00",
        "meta_object_name": "FENGYUN 1C DEB",
        "meta_object_id": "1999-025BDT",
        "meta_epoch": "2025-12-03T05:06:44.299008",
        "meta_mean_motion": 14.20496018,
        "meta_eccentricity": 0.0173717,
        "meta_inclination": 98.5813,
        "meta_ra_of_asc_node": 327.6823,
        "meta_arg_of_pericenter": 40.2531,
        "meta_mean_anomaly": 321.1361,
        "meta_ephemeris_type": 0,
        "meta_classification_type": "U",
        "meta_norad_cat_id": 31025,
        "meta_element_set_no": 999,
        "meta_rev_at_epoch": 64230,
        "meta_bstar": 0.00089509,
        "meta_mean_motion_dot": 2.194e-05,
        "meta_mean_motion_ddot": 0,
        "tle_line1": "1 31025U 99025BDT 25337.21301272  .00002194  00000+0  89509-3 0  9993",
        "tle_line2": "2 31025  98.5813 327.6823 0173717  40.2531 321.1361 14.20496018642306"
      },
      "geometry": {
        "type": "Point",
        "coordinates": [
          -28.015247736981514,
          -17.1100268900339
        ]
      }
    }
  ]
}